NORAD_CAT_ID,OBJECT_NAME,OBJECT_TYPE,EPOCH,MEAN_MOTION,ECCENTRICITY,INCLINATION,RA_OF_ASC_NODE,ARG_OF_PERICENTER,MEAN_ANOMALY,BSTAR,MEAN_MOTION_DOT,MEAN_MOTION_DDOT,TLE_LINE0,TLE_LINE1,TLE_LINE2,SEMIMAJOR_AXIS,PERIOD,APOGEE,PERIGEE,DECAYED
52292.0,STARLINK-3753,PAYLOAD,2022-11-16 17:39:36,15.08849875,0.0001641999999999,53.2178,126.321,59.7895,300.326,1.1567e-05,-1.04e-06,0.0,0 STARLINK-3753,1 52292U 22041AH  22320.73584203 -.00000104  00000-0  11567-4 0  9990,2 52292  53.2178 126.3210 0001642  59.7895 300.3260 15.08849875 33217,6917.85,95.437,540.851,538.5790000000002,0.0
52292.0,STARLINK-3753,PAYLOAD,2022-11-17 04:47:18,15.08842576,0.000168,53.2175,124.2398,58.7873,301.3284,7.2955e-05,8.73e-06,0.0,0 STARLINK-3753,1 52292U 22041AH  22321.19952303  .00000873  00000-0  72955-4 0  9991,2 52292  53.2175 124.2398 0001680  58.7873 301.3284 15.08842576 33280,6917.873000000001,95.437,540.9,538.575,0.0
52292.0,STARLINK-3753,PAYLOAD,2022-11-17 11:08:51,15.08837571,0.0001716,53.2176,123.0503,61.1262,298.9902,1.102e-05,-1.13e-06,0.0,0 STARLINK-3753,1 52292U 22041AH  22321.46448810 -.00000113  00000-0  11020-4 0  9998,2 52292  53.2176 123.0503 0001716  61.1262 298.9902 15.08837571 32103,6917.888000000001,95.438,540.94,538.566,0.0
52292.0,STARLINK-3753,PAYLOAD,2022-11-17 14:19:38,15.08835815,0.0001705,53.2175,122.4555,61.0071,299.1092,-4.3636e-06,-3.58e-06,0.0,0 STARLINK-3753,1 52292U 22041AH  22321.59696970 -.00000358  00000-0 -43636-5 0  9995,2 52292  53.2175 122.4555 0001705  61.0071 299.1092 15.08835815 33346,6917.893,95.438,540.938,538.5790000000002,0.0
52292.0,STARLINK-3753,PAYLOAD,2022-11-18 10:59:39,15.08829185,0.0001675,53.2175,118.59,60.4205,299.6953,-0.00013003,-2.356e-05,0.0,0 STARLINK-3753,1 52292U 22041AH  22322.45810061 -.00002356  00000-0 -13003-3 0  9993,2 52292  53.2175 118.5900 0001675  60.4205 299.6953 15.08829185 33472,6917.913000000001,95.438,540.937,538.62,0.0
52292.0,STARLINK-3753,PAYLOAD,2022-11-18 15:45:49,15.08830248,0.0001679,53.2178,117.6971,59.5967,300.5191,-0.00011598,-2.133e-05,0.0,0 STARLINK-3753,1 52292U 22041AH  22322.65682108 -.00002133  00000-0 -11598-3 0  9994,2 52292  53.2178 117.6971 0001679  59.5967 300.5191 15.08830248 32287,6917.91,95.438,540.937,538.614,0.0
52292.0,STARLINK-3753,PAYLOAD,2022-11-19 09:15:03,15.08831253,0.0001713,53.2176,114.4259,60.8025,299.3138,-3.6365e-05,-8.67e-06,0.0,0 STARLINK-3753,1 52292U 22041AH  22323.38546187 -.00000867  00000-0 -36365-4 0  9993,2 52292  53.2176 114.4259 0001713  60.8025 299.3138 15.08831253 32393,6917.906999999997,95.438,540.957,538.587,0.0
52292.0,STARLINK-3753,PAYLOAD,2022-11-19 12:25:50,15.08830451,0.0001629999999999,53.2178,113.8316,57.5302,302.5848,9.0506e-06,-1.44e-06,0.0,0 STARLINK-3753,1 52292U 22041AH  22323.51794111 -.00000144  00000-0  90506-5 0  9995,2 52292  53.2178 113.8316 0001630  57.5302 302.5848 15.08830451 33633,6917.91,95.438,540.9019999999998,538.6469999999998,0.0
52292.0,STARLINK-3753,PAYLOAD,2022-11-19 20:22:45,15.08842329,0.0001786,53.2177,112.3448,69.9756,290.1429,-8.138e-05,-1.583e-05,0.0,0 STARLINK-3753,1 52292U 22041AH  22323.84913795 -.00001583  00000-0 -81380-4 0  9990,2 52292  53.2177 112.3448 0001786  69.9756 290.1429 15.08842329 32468,6917.873000000001,95.437,540.974,538.503,0.0
52292.0,STARLINK-3753,PAYLOAD,2022-11-20 10:41:13,15.08835816,0.0001588,53.2182,109.6688,54.5923,305.5217,0.00012594,1.717e-05,0.0,0 STARLINK-3753,1 52292U 22041AH  22324.44529804  .00001717  00000-0  12594-3 0  9998,2 52292  53.2182 109.6688 0001588  54.5923 305.5217 15.08835816 33779,6917.893,95.438,540.857,538.66,0.0
52292.0,STARLINK-3753,PAYLOAD,2022-11-20 12:16:36,15.08837185,0.0001583,53.2181,109.3714,56.0861,304.0282,0.00013536,1.867e-05,0.0,0 STARLINK-3753,1 52292U 22041AH  22324.51153687  .00001867  00000-0  13536-3 0  9991,2 52292  53.2181 109.3714 0001583  56.0861 304.0282 15.08837185 32561,6917.889,95.438,540.849,538.659,0.0
52292.0,STARLINK-3753,PAYLOAD,2022-11-20 17:02:46,15.08839414,0.0001569,53.2182,108.4794,56.5305,303.5837,0.00014534,2.026e-05,0.0,0 STARLINK-3753,1 52292U 22041AH  22324.71025546  .00002026  00000-0  14534-3 0  9992,2 52292  53.2182 108.4794 0001569  56.5305 303.5837 15.08839414 32592,6917.882,95.438,540.8330000000002,538.6619999999998,0.0
52292.0,STARLINK-3753,PAYLOAD,2022-11-21 02:35:05,15.08832446,0.0001604,53.2183,106.6955,55.4686,304.6458,5.8088e-05,6.36e-06,0.0,0 STARLINK-3753,1 52292U 22041AH  22325.10770377  .00000636  00000-0  58088-4 0  9993,2 52292  53.2183 106.6955 0001604  55.4686 304.6458 15.08832446 33873,6917.903,95.438,540.878,538.659,0.0
52292.0,STARLINK-3753,PAYLOAD,2022-11-21 12:07:24,15.08835448,0.0001685,53.2182,104.9109,57.1618,302.9537,3.753e-05,3.09e-06,0.0,0 STARLINK-3753,1 52292U 22041AH  22325.50514418  .00000309  00000-0  37530-4 0  9995,2 52292  53.2182 104.9109 0001685  57.1618 302.9537 15.08835448 32713,6917.894,95.438,540.925,538.594,0.0
52292.0,STARLINK-3753,PAYLOAD,2022-11-21 18:28:56,15.08841169,0.0001558,53.2185,103.7218,55.15600000000001,304.9578,5.0881e-05,5.22e-06,0.0,0 STARLINK-3753,1 52292U 22041AH  22325.77009989  .00000522  00000-0  50881-4 0  9997,2 52292  53.2185 103.7218 0001558  55.1560 304.9578 15.08841169 32755,6917.877,95.437,540.82,538.664,0.0
52292.0,STARLINK-3753,PAYLOAD,2022-11-22 02:25:51,15.08847221,0.0001604,53.2185,102.2348,55.1456,304.9687,5.0486e-05,5.16e-06,0.0,0 STARLINK-3753,1 52292U 22041AH  22326.10129539  .00000516  00000-0  50486-4 0  9993,2 52292  53.2185 102.2348 0001604  55.1456 304.9687 15.08847221 34027,6917.858,95.437,540.8330000000002,538.614,0.0
52292.0,STARLINK-3753,PAYLOAD,2022-11-22 11:58:11,15.08840422,0.0001554,53.2184,100.4512,55.3809,304.733,-2.6403e-05,-7.08e-06,0.0,0 STARLINK-3753,1 52292U 22041AH  22326.49874105 -.00000708  00000-0 -26403-4 0  9998,2 52292  53.2184 100.4512 0001554  55.3809 304.7330 15.08840422 32866,6917.879,95.438,540.819,538.669,0.0
52292.0,STARLINK-3753,PAYLOAD,2022-11-22 16:44:20,15.08840775,0.00016,53.2186,99.5587,54.9266,305.1876,-5.1835e-05,-1.113e-05,0.0,0 STARLINK-3753,1 52292U 22041AH  22326.69746171 -.00001113  00000-0 -51835-4 0  9999,2 52292  53.2186  99.5587 0001600  54.9266 305.1876 15.08840775 34113,6917.878000000002,95.438,540.85,538.636,0.0
52292.0,STARLINK-3753,PAYLOAD,2022-11-23 08:38:11,15.08839886,0.0001614,53.2188,96.5849,53.6768,306.4372,4.5367e-05,4.34e-06,0.0,0 STARLINK-3753,1 52292U 22041AH  22327.35985815  .00000434  00000-0  45367-4 0  9999,2 52292  53.2188  96.5849 0001614  53.6768 306.4372 15.08839886 32991,6917.880999999999,95.438,540.862,538.629,0.0
52292.0,STARLINK-3753,PAYLOAD,2022-11-23 14:59:44,15.08832508,0.0001281,53.2212,95.3934,55.794,304.3173,-1.3293e-05,-4.99e-06,0.0,0 STARLINK-3753,1 52292U 22041AH  22327.62482450 -.00000499  00000-0 -13293-4 0  9992,2 52292  53.2212  95.3934 0001281  55.7940 304.3173 15.08832508 34257,6917.903,95.438,540.654,538.882,0.0
52292.0,STARLINK-3753,PAYLOAD,2022-11-24 08:28:59,15.08836932,0.0001541,53.2196,92.1238,61.0928,299.0219,1.278e-05,-8.5e-07,0.0,0 STARLINK-3753,1 52292U 22041AH  22328.35346206 -.00000085  00000-0  12780-4 0  9991,2 52292  53.2196  92.1238 0001541  61.0928 299.0219 15.08836932 33148,6917.89,95.438,540.821,538.689,0.0
52292.0,STARLINK-3753,PAYLOAD,2022-11-24 11:39:45,15.08839756,0.0001648,53.219,91.5304,57.8301,302.2851,3.3033e-05,2.38e-06,0.0,0 STARLINK-3753,1 52292U 22041AH  22328.48593982  .00000238  00000-0  33033-4 0  9993,2 52292  53.2190  91.5304 0001648  57.8301 302.2851 15.08839756 34388,6917.880999999999,95.438,540.886,538.606,0.0
52292.0,STARLINK-3753,PAYLOAD,2022-11-24 13:15:08,15.08840646,0.0001658,53.2191,91.233,58.1102,302.0052,4.0324e-05,3.54e-06,0.0,0 STARLINK-3753,1 52292U 22041AH  22328.55217905  .00000354  00000-0  40324-4 0  9999,2 52292  53.2191  91.2330 0001658  58.1102 302.0052 15.08840646 33176,6917.878000000002,95.438,540.89,538.596,0.0
52292.0,STARLINK-3753,PAYLOAD,2022-11-25 11:30:31,15.08838201,0.0001645,53.2186,87.069,63.2635,296.8525,0.00010258,1.345e-05,0.0,0 STARLINK-3753,1 52292U 22041AH  22329.47953696  .00001345  00000-0  10258-3 0  9998,2 52292  53.2186  87.0690 0001645  63.2635 296.8525 15.08838201 33311,6917.886,95.438,540.889,538.613,0.0
52292.0,STARLINK-3753,PAYLOAD,2022-11-25 14:41:18,15.08837421,0.0001751999999999,53.2189,86.4758,56.6277,303.4883,9.3344e-05,1.198e-05,0.0,0 STARLINK-3753,1 52292U 22041AH  22329.61201840  .00001198  00000-0  93344-4 0  9995,2 52292  53.2189  86.4758 0001752  56.6277 303.4883 15.08837421 34551,6917.888000000001,95.438,540.965,538.5409999999998,0.0
52292.0,STARLINK-3753,PAYLOAD,2022-11-26 11:21:19,15.08840416,0.0001683,53.2185,82.6098,55.093,305.022,1.1465999999999997e-05,-1.06e-06,0.0,0 STARLINK-3753,1 52292U 22041AH  22330.47313747 -.00000106  00000-0  11466-4 0  9995,2 52292  53.2185  82.6098 0001683  55.0930 305.0220 15.08840416 33464,6917.879,95.438,540.908,538.58,0.0
52292.0,STARLINK-3753,PAYLOAD,2022-11-26 17:42:51,15.08846252,0.000172,53.2187,81.4205,50.6942,309.4203,2.6767e-05,1.38e-06,0.0,0 STARLINK-3753,1 52292U 22041AH  22330.73809272  .00000138  00000-0  26767-4 0  9991,2 52292  53.2187  81.4205 0001720  50.6942 309.4203 15.08846252 34722,6917.861,95.437,540.9159999999998,538.536,0.0
52292.0,STARLINK-3753,PAYLOAD,2022-11-27 09:36:43,15.08832228,0.0001654,53.219,78.4471,51.0302,309.0838,-7.829999999999999e-05,-1.534e-05,0.0,0 STARLINK-3753,1 52292U 22041AH  22331.40050183 -.00001534  00000-0 -78300-4 0  9998,2 52292  53.2190  78.4471 0001654  51.0302 309.0838 15.08832228 33602,6917.904,95.438,540.913,538.625,0.0
52292.0,STARLINK-3753,PAYLOAD,2022-11-27 14:22:53,15.08820108,0.0001745,53.2189,77.5551,51.4976,308.6173,1.3693000000000002e-06,-2.66e-06,0.0,0 STARLINK-3753,1 52292U 22041AH  22331.59922737 -.00000266  00000-0  13693-5 0  9996,2 52292  53.2189  77.5551 0001745  51.4976 308.6173 15.08820108 34850,6917.941,95.439,541.013,538.599,0.0
